OBJECT_NAME,OBJECT_ID,EPOCH,MEAN_MOTION,ECCENTRICITY,INCLINATION,RA_OF_ASC_NODE,ARG_OF_PERICENTER,MEAN_ANOMALY,EPHEMERIS_TYPE,CLASSIFICATION_TYPE,NORAD_CAT_ID,ELEMENT_SET_NO,REV_AT_EPOCH,BSTAR,MEAN_MOTION_DOT,MEAN_MOTION_DDOT
IRIDIUM 154,2018-061F,2026-06-09T10:01:14.444256,14.34217753,.00020407,86.3968,60.0553,86.9586,273.1843,0,U,43574,999,41229,.8482452E-5,.44E-6,0
IRIDIUM 163,2018-061G,2026-06-09T11:14:17.604384,14.34215605,.00023205,86.3966,59.9498,83.5149,276.6311,0,U,43575,999,41227,.27216384E-4,.96E-6,0
IRIDIUM 156,2018-061H,2026-06-09T10:37:46.525440,14.34215880,.00028792,86.3992,59.9645,78.2319,281.9200,0,U,43576,999,41226,.72131057E-4,.222E-5,0
IRIDIUM 164,2018-061J,2026-06-09T10:10:22.425888,14.34217483,.00020745,86.3967,60.0156,88.5148,271.6285,0,U,43577,999,41230,.24919157E-4,.9E-6,0
IRIDIUM 159,2018-061K,2026-06-09T11:05:10.401216,14.34216894,.00023228,86.3966,59.9369,84.7054,275.4407,0,U,43578,999,41227,.67401588E-4,.209E-5,0
IRIDIUM 180,2019-002A,2026-06-09T12:44:54.909312,14.34217921,.00022487,86.3972,356.7990,89.1614,270.9839,0,U,43922,999,38789,.659557E-5,.38E-6,0
IRIDIUM 176,2019-002B,2026-06-09T13:07:06.296160,14.72256926,.00022175,86.6093,356.7369,91.1424,269.0048,0,U,43923,999,39812,.11099729E-3,.725E-5,0
IRIDIUM 168,2019-002C,2026-06-09T12:35:46.981248,14.34217659,.00021808,86.3975,356.8787,89.1370,271.0076,0,U,43924,999,38787,.4791992E-5,.33E-6,0
IRIDIUM 173,2019-002D,2026-06-09T12:17:30.869376,14.34217340,.00022425,86.3972,356.7731,86.4740,273.6713,0,U,43925,999,38785,.13388063E-4,.57E-6,0
IRIDIUM 169,2019-002E,2026-06-09T09:25:06.421152,14.38610903,.00021297,86.4233,28.4526,70.4730,289.6698,0,U,43926,999,38910,.71085381E-4,.237E-5,0
IRIDIUM 172,2019-002F,2026-06-09T12:08:22.787520,14.34218727,.00022864,86.3971,356.7836,88.8646,271.2811,0,U,43927,999,38786,.31620766E-4,.108E-5,0
IRIDIUM 175,2019-002G,2026-06-09T10:38:16.864800,14.43608463,.00014954,86.4507,293.7585,210.5715,149.5400,0,U,43928,999,39786,.8269821E-4,.3E-5,0
IRIDIUM 171,2019-002H,2026-06-09T13:21:26.787456,14.34218921,.00020088,86.3980,357.0678,86.8691,273.2734,0,U,43929,999,38786,.40382671E-4,.133E-5,0
IRIDIUM 170,2019-002J,2026-06-09T13:16:00.525504,14.72257346,.00023615,86.6092,356.7369,87.7826,272.3661,0,U,43930,999,39813,.11036579E-3,.721E-5,0
IRIDIUM 167,2019-002K,2026-06-09T13:12:18.900000,14.34217613,.00018564,86.3972,356.7873,86.5864,273.5544,0,U,43931,999,38786,.1990277E-5,.25E-6,0
IRIDIUM 181,2023-068S,2026-06-09T11:31:31.583424,14.43310549,.00022926,86.4503,60.0122,90.7196,269.4267,0,U,56726,999,16132,.80135459E-4,.29E-5,0
IRIDIUM 177,2023-068T,2026-06-09T13:09:38.850048,14.80216435,.00024362,86.1957,332.4201,88.5294,271.6206,0,U,56727,999,16523,.13400038E-3,.1044E-4,0
IRIDIUM 174,2023-068U,2026-06-09T12:58:12.955872,14.72253394,.00025715,86.6100,356.8888,85.2134,274.9377,0,U,56728,999,16489,.11637264E-3,.758E-5,0
IRIDIUM 178,2023-068V,2026-06-09T12:53:59.712288,14.80220586,.00026724,86.6544,28.5573,88.8571,271.2956,0,U,56729,999,16523,.11353945E-3,.889E-5,0
IRIDIUM 179,2023-068W,2026-06-09T09:31:34.331232,14.80236972,.00023978,86.6786,37.5726,87.5243,272.6253,0,U,56730,999,16521,.110513E-3,.866E-5,0
