IRIDIUM 154             
1 43574U 18061F   26160.41752829  .00000044  00000+0  84825-5 0  9991
2 43574  86.3968  60.0553 0002040  86.9586 273.1843 14.34217753412295
IRIDIUM 163             
1 43575U 18061G   26160.46825931  .00000096  00000+0  27216-4 0  9999
2 43575  86.3966  59.9498 0002320  83.5149 276.6311 14.34215605412278
IRIDIUM 156             
1 43576U 18061H   26160.44289960  .00000222  00000+0  72131-4 0  9991
2 43576  86.3992  59.9645 0002879  78.2319 281.9200 14.34215880412261
IRIDIUM 164             
1 43577U 18061J   26160.42387067  .00000090  00000+0  24919-4 0  9991
2 43577  86.3967  60.0156 0002074  88.5148 271.6285 14.34217483412300
IRIDIUM 159             
1 43578U 18061K   26160.46192594  .00000209  00000+0  67402-4 0  9991
2 43578  86.3966  59.9369 0002322  84.7054 275.4407 14.34216894412272
IRIDIUM 180             
1 43922U 19002A   26160.53119108  .00000038  00000+0  65956-5 0  9991
2 43922  86.3972 356.7990 0002248  89.1614 270.9839 14.34217921387898
IRIDIUM 176             
1 43923U 19002B   26160.54660065  .00000725  00000+0  11100-3 0  9999
2 43923  86.6093 356.7369 0002217  91.1424 269.0048 14.72256926398123
IRIDIUM 168             
1 43924U 19002C   26160.52484932  .00000033  00000+0  47920-5 0  9998
2 43924  86.3975 356.8787 0002180  89.1370 271.0076 14.34217659387873
IRIDIUM 173             
1 43925U 19002D   26160.51216284  .00000057  00000+0  13388-4 0  9997
2 43925  86.3972 356.7731 0002242  86.4740 273.6713 14.34217340387850
IRIDIUM 169             
1 43926U 19002E   26160.39243543  .00000237  00000+0  71085-4 0  9990
2 43926  86.4233  28.4526 0002129  70.4730 289.6698 14.38610903389108
IRIDIUM 172             
1 43927U 19002F   26160.50581930  .00000108  00000+0  31621-4 0  9998
2 43927  86.3971 356.7836 0002286  88.8646 271.2811 14.34218727387860
IRIDIUM 175             
1 43928U 19002G   26160.44325075  .00000300  00000+0  82698-4 0  9992
2 43928  86.4507 293.7585 0001495 210.5715 149.5400 14.43608463397862
IRIDIUM 171             
1 43929U 19002H   26160.55656004  .00000133  00000+0  40383-4 0  9993
2 43929  86.3980 357.0678 0002008  86.8691 273.2734 14.34218921387862
IRIDIUM 170             
1 43930U 19002J   26160.55278386  .00000721  00000+0  11037-3 0  9994
2 43930  86.6092 356.7369 0002361  87.7826 272.3661 14.72257346398133
IRIDIUM 167             
1 43931U 19002K   26160.55021875  .00000025  00000+0  19903-5 0  9993
2 43931  86.3972 356.7873 0001856  86.5864 273.5544 14.34217613387867
IRIDIUM 181             
1 56726U 23068S   26160.48022666  .00000290  00000+0  80135-4 0  9995
2 56726  86.4503  60.0122 0002292  90.7196 269.4267 14.43310549161325
IRIDIUM 177             
1 56727U 23068T   26160.54836632  .00001044  00000+0  13400-3 0  9997
2 56727  86.1957 332.4201 0002436  88.5294 271.6206 14.80216435165236
IRIDIUM 174             
1 56728U 23068U   26160.54042773  .00000758  00000+0  11637-3 0  9994
2 56728  86.6100 356.8888 0002571  85.2134 274.9377 14.72253394164892
IRIDIUM 178             
1 56729U 23068V   26160.53749667  .00000889  00000+0  11354-3 0  9991
2 56729  86.6544  28.5573 0002672  88.8571 271.2956 14.80220586165233
IRIDIUM 179             
1 56730U 23068W   26160.39692513  .00000866  00000+0  11051-3 0  9993
2 56730  86.6786  37.5726 0002397  87.5243 272.6253 14.80236972165218
